[{"OBJECT_NAME":"TIANMU-1 22","OBJECT_ID":"2023-208D","EPOCH":"2026-03-09T22:39:05.738688","MEAN_MOTION":15.29457749,"ECCENTRICITY":0.00031332,"INCLINATION":97.4379,"RA_OF_ASC_NODE":184.9419,"ARG_OF_PERICENTER":351.9312,"MEAN_ANOMALY":8.1877,"EPHEMERIS_TYPE":0,"CLASSIFICATION_TYPE":"U","NORAD_CAT_ID":58663,"ELEMENT_SET_NO":999,"REV_AT_EPOCH":12215,"BSTAR":0.00038239675,"MEAN_MOTION_DOT":0.00010851,"MEAN_MOTION_DDOT":0},{"OBJECT_NAME":"STARLINK-32256","OBJECT_ID":"2024-138H","EPOCH":"2026-03-09T21:20:12.998976","MEAN_MOTION":15.30186397,"ECCENTRICITY":0.00011096,"INCLINATION":53.16,"RA_OF_ASC_NODE":308.9896,"ARG_OF_PERICENTER":94.3326,"MEAN_ANOMALY":265.7802,"EPHEMERIS_TYPE":0,"CLASSIFICATION_TYPE":"U","NORAD_CAT_ID":60362,"ELEMENT_SET_NO":999,"REV_AT_EPOCH":9064,"BSTAR":4.412005e-5,"MEAN_MOTION_DOT":9.47e-6,"MEAN_MOTION_DDOT":0}]
